start=new Date('2022-02-07T00:00:00.000Z').valueOf();
sats=[{"ECCENTRICITY":"0.00014880","RA_OF_ASC_NODE":"54.2062","RCS_SIZE":"LARGE","SITE":"AFETR","OBJECT_NAME":"STARLINK-1485","MEAN_MOTION_DOT":"-0.00002592","FILE":"3293822","OBJECT_TYPE":"PAYLOAD","TLE_LINE2":"2 45774  53.0551  54.2062 0001488  61.3440 298.7699 15.06394361 91880","EPOCH":"2022-02-06T17:54:46.777536","EPHEMERIS_TYPE":"0","APOAPSIS":"548.261","TLE_LINE1":"1 45774U 20038AW  22037.74637474 -.00002592  00000-0 -15517-3 0  9998","COUNTRY_CODE":"US","REV_AT_EPOCH":"9188","MEAN_MOTION_DDOT":"0.0000000000000","ARG_OF_PERICENTER":"61.3440","PERIOD":"95.592","OBJECT_ID":"2020-038AW","CENTER_NAME":"EARTH","MEAN_ELEMENT_THEORY":"SGP4","MEAN_MOTION":"15.06394361","BSTAR":"-0.00015517000000","LAUNCH_DATE":"2020-06-13","INCLINATION":"53.0551","DECAY_DATE":null,"CLASSIFICATION_TYPE":"U","REF_FRAME":"TEME","GP_ID":"195441044","SEMIMAJOR_AXIS":"6925.366","NORAD_CAT_ID":"45774","ELEMENT_SET_NO":"999","MEAN_ANOMALY":"298.7699","TIME_SYSTEM":"UTC","PERIAPSIS":"546.200"},{"NORAD_CAT_ID":"45775","SEMIMAJOR_AXIS":"6925.411","GP_ID":"195441796","REF_FRAME":"TEME","CLASSIFICATION_TYPE":"U","MEAN_ANOMALY":"290.5442","ELEMENT_SET_NO":"999","TIME_SYSTEM":"UTC","PERIAPSIS":"545.966","CENTER_NAME":"EARTH","OBJECT_ID":"2020-038AX","MEAN_ELEMENT_THEORY":"SGP4","DECAY_DATE":null,"LAUNCH_DATE":"2020-06-13","INCLINATION":"53.0569","BSTAR":"-0.00009695100000","MEAN_MOTION":"15.06379551","OBJECT_TYPE":"PAYLOAD","APOAPSIS":"548.587","EPHEMERIS_TYPE":"0","TLE_LINE2":"2 45775  53.0569  54.1986 0001892  69.5750 290.5442 15.06379551 91898","EPOCH":"2022-02-06T18:00:05.654016","MEAN_MOTION_DDOT":"0.0000000000000","REV_AT_EPOCH":"9189","TLE_LINE1":"1 45775U 20038AX  22037.75006544 -.00001725  00000-0 -96951-4 0  9997","COUNTRY_CODE":"US","ARG_OF_PERICENTER":"69.5750","PERIOD":"95.593","ECCENTRICITY":"0.00018920","RCS_SIZE":"LARGE","RA_OF_ASC_NODE":"54.1986","FILE":"3293822","SITE":"AFETR","MEAN_MOTION_DOT":"-0.00001725","OBJECT_NAME":"STARLINK-1488"},{"MEAN_MOTION":"15.06391770","BSTAR":"-0.00005919900000","LAUNCH_DATE":"2020-06-13","INCLINATION":"53.0542","DECAY_DATE":null,"CENTER_NAME":"EARTH","OBJECT_ID":"2020-038AY","MEAN_ELEMENT_THEORY":"SGP4","PERIAPSIS":"546.120","TIME_SYSTEM":"UTC","ELEMENT_SET_NO":"999","MEAN_ANOMALY":"297.6558","CLASSIFICATION_TYPE":"U","GP_ID":"195441547","REF_FRAME":"TEME","SEMIMAJOR_AXIS":"6925.374","NORAD_CAT_ID":"45776","MEAN_MOTION_DOT":"-0.00001163","SITE":"AFETR","OBJECT_NAME":"STARLINK-1489","FILE":"3293822","RA_OF_ASC_NODE":"54.1560","RCS_SIZE":"LARGE","ECCENTRICITY":"0.00016160","ARG_OF_PERICENTER":"62.4595","PERIOD":"95.593","TLE_LINE1":"1 45776U 20038AY  22037.75742970 -.00001163  00000-0 -59199-4 0  9997","COUNTRY_CODE":"US","REV_AT_EPOCH":"9189","MEAN_MOTION_DDOT":"0.0000000000000","TLE_LINE2":"2 45776  53.0542  54.1560 0001616  62.4595 297.6558 15.06391770 91894","EPOCH":"2022-02-06T18:10:41.926080","EPHEMERIS_TYPE":"0","APOAPSIS":"548.358","OBJECT_TYPE":"PAYLOAD"},{"DECAY_DATE":null,"LAUNCH_DATE":"2020-06-13","BSTAR":"0.00001702200000","INCLINATION":"53.0543","MEAN_MOTION":"15.06386272","OBJECT_ID":"2020-038AZ","CENTER_NAME":"EARTH","MEAN_ELEMENT_THEORY":"SGP4","MEAN_ANOMALY":"299.9572","ELEMENT_SET_NO":"999","TIME_SYSTEM":"UTC","PERIAPSIS":"546.085","NORAD_CAT_ID":"45777","SEMIMAJOR_AXIS":"6925.391","GP_ID":"195440295","REF_FRAME":"TEME","CLASSIFICATION_TYPE":"U","RCS_SIZE":"LARGE","RA_OF_ASC_NODE":"54.1867","FILE":"3293822","SITE":"AFETR","MEAN_MOTION_DOT":"-0.00000028","OBJECT_NAME":"STARLINK-1490","ECCENTRICITY":"0.00016910","MEAN_MOTION_DDOT":"0.0000000000000","REV_AT_EPOCH":"9189","COUNTRY_CODE":"US","TLE_LINE1":"1 45777U 20038AZ  22037.75374780 -.00000028  00000-0  17022-4 0  9995","ARG_OF_PERICENTER":"60.1585","PERIOD":"95.593","OBJECT_TYPE":"PAYLOAD","APOAPSIS":"548.427","EPHEMERIS_TYPE":"0","TLE_LINE2":"2 45777  53.0543  54.1867 0001691  60.1585 299.9572 15.06386272 91895","EPOCH":"2022-02-06T18:05:23.809920"},{"ELEMENT_SET_NO":"999","MEAN_ANOMALY":"289.4995","TIME_SYSTEM":"UTC","PERIAPSIS":"546.166","CLASSIFICATION_TYPE":"U","REF_FRAME":"TEME","GP_ID":"195440545","SEMIMAJOR_AXIS":"6925.389","NORAD_CAT_ID":"45778","MEAN_MOTION":"15.06386659","LAUNCH_DATE":"2020-06-13","BSTAR":"-0.00005862100000","INCLINATION":"53.0545","DECAY_DATE":null,"MEAN_ELEMENT_THEORY":"SGP4","CENTER_NAME":"EARTH","OBJECT_ID":"2020-038BA","TLE_LINE1":"1 45778U 20038BA  22037.73531704 -.00001154  00000-0 -58621-4 0  9997","COUNTRY_CODE":"US","REV_AT_EPOCH":"9187","MEAN_MOTION_DDOT":"0.0000000000000","PERIOD":"95.593","ARG_OF_PERICENTER":"70.6164","OBJECT_TYPE":"PAYLOAD","EPOCH":"2022-02-06T17:38:51.392256","TLE_LINE2":"2 45778  53.0545  54.2620 0001572  70.6164 289.4995 15.06386659 91873","EPHEMERIS_TYPE":"0","APOAPSIS":"548.343","RA_OF_ASC_NODE":"54.2620","RCS_SIZE":"LARGE","SITE":"AFETR","OBJECT_NAME":"STARLINK-1491","MEAN_MOTION_DOT":"-0.00001154","FILE":"3293822","ECCENTRICITY":"0.00015720"},{"ELEMENT_SET_NO":"999","MEAN_ANOMALY":"309.5800","PERIAPSIS":"546.061","TIME_SYSTEM":"UTC","REF_FRAME":"TEME","GP_ID":"195441297","CLASSIFICATION_TYPE":"U","NORAD_CAT_ID":"45779","SEMIMAJOR_AXIS":"6925.416","LAUNCH_DATE":"2020-06-13","BSTAR":"-0.00022367000000","INCLINATION":"53.0526","MEAN_MOTION":"15.06378119","DECAY_DATE":null,"OBJECT_ID":"2020-038BB","CENTER_NAME":"EARTH","MEAN_ELEMENT_THEORY":"SGP4","TLE_LINE1":"1 45779U 20038BB  22037.73163794 -.00003610  00000-0 -22367-3 0  9994","COUNTRY_CODE":"US","MEAN_MOTION_DDOT":"0.0000000000000","REV_AT_EPOCH":"9187","ARG_OF_PERICENTER":"50.5345","PERIOD":"95.594","OBJECT_TYPE":"PAYLOAD","EPHEMERIS_TYPE":"0","EPOCH":"2022-02-06T17:33:33.518016","TLE_LINE2":"2 45779  53.0526  54.2786 0001761  50.5345 309.5800 15.06378119 91875","APOAPSIS":"548.500","RA_OF_ASC_NODE":"54.2786","RCS_SIZE":"LARGE","OBJECT_NAME":"STARLINK-1492","SITE":"AFETR","MEAN_MOTION_DOT":"-0.00003610","FILE":"3293822","ECCENTRICITY":"0.00017610"},{"SEMIMAJOR_AXIS":"6925.398","NORAD_CAT_ID":"45780","CLASSIFICATION_TYPE":"U","REF_FRAME":"TEME","GP_ID":"195442047","TIME_SYSTEM":"UTC","PERIAPSIS":"546.128","MEAN_ANOMALY":"292.0655","ELEMENT_SET_NO":"999","OBJECT_ID":"2020-038BC","CENTER_NAME":"EARTH","MEAN_ELEMENT_THEORY":"SGP4","DECAY_DATE":null,"MEAN_MOTION":"15.06383993","LAUNCH_DATE":"2020-06-13","BSTAR":"-0.00004170800000","INCLINATION":"53.0549","APOAPSIS":"548.397","EPOCH":"2022-02-06T17:49:27.976224","TLE_LINE2":"2 45780  53.0549  54.2387 0001638  68.0508 292.0655 15.06383993 91877","EPHEMERIS_TYPE":"0","OBJECT_TYPE":"PAYLOAD","PERIOD":"95.593","ARG_OF_PERICENTER":"68.0508","REV_AT_EPOCH":"9187","MEAN_MOTION_DDOT":"0.0000000000000","COUNTRY_CODE":"US","TLE_LINE1":"1 45780U 20038BC  22037.74268491 -.00000902  00000-0 -41708-4 0  9999","ECCENTRICITY":"0.00016380","FILE":"3293822","SITE":"AFETR","MEAN_MOTION_DOT":"-0.00000902","OBJECT_NAME":"STARLINK-1496","RCS_SIZE":"LARGE","RA_OF_ASC_NODE":"54.2387"},{"APOAPSIS":"548.422","TLE_LINE2":"2 45781  53.0540  54.1199 0001732  66.0028 294.1142 15.06396963 91885","EPOCH":"2022-02-06T18:26:37.655232","EPHEMERIS_TYPE":"0","OBJECT_TYPE":"PAYLOAD","PERIOD":"95.592","ARG_OF_PERICENTER":"66.0028","REV_AT_EPOCH":"9188","MEAN_MOTION_DDOT":"0.0000000000000","TLE_LINE1":"1 45781U 20038BD  22037.76849138 -.00001026  00000-0 -49978-4 0  9990","COUNTRY_CODE":"US","ECCENTRICITY":"0.00017320","FILE":"3293822","OBJECT_NAME":"STARLINK-1497","SITE":"AFETR","MEAN_MOTION_DOT":"-0.00001026","RCS_SIZE":"LARGE","RA_OF_ASC_NODE":"54.1199","SEMIMAJOR_AXIS":"6925.358","NORAD_CAT_ID":"45781","CLASSIFICATION_TYPE":"U","GP_ID":"195440795","REF_FRAME":"TEME","TIME_SYSTEM":"UTC","PERIAPSIS":"546.023","MEAN_ANOMALY":"294.1142","ELEMENT_SET_NO":"999","OBJECT_ID":"2020-038BD","CENTER_NAME":"EARTH","MEAN_ELEMENT_THEORY":"SGP4","DECAY_DATE":null,"MEAN_MOTION":"15.06396963","LAUNCH_DATE":"2020-06-13","INCLINATION":"53.0540","BSTAR":"-0.00004997800000"},{"ECCENTRICITY":"0.00016080","OBJECT_NAME":"STARLINK-1498","SITE":"AFETR","MEAN_MOTION_DOT":"-0.00001240","FILE":"3293822","RA_OF_ASC_NODE":"54.1523","RCS_SIZE":"LARGE","EPOCH":"2022-02-06T18:16:00.939072","TLE_LINE2":"2 45782  53.0555  54.1523 0001608  62.7647 297.3506 15.06385878 91898","EPHEMERIS_TYPE":"0","APOAPSIS":"548.370","OBJECT_TYPE":"PAYLOAD","ARG_OF_PERICENTER":"62.7647","PERIOD":"95.593","COUNTRY_CODE":"US","TLE_LINE1":"1 45782U 20038BE  22037.76112198 -.00001240  00000-0 -64375-4 0  9996","REV_AT_EPOCH":"9189","MEAN_MOTION_DDOT":"0.0000000000000","OBJECT_ID":"2020-038BE","CENTER_NAME":"EARTH","MEAN_ELEMENT_THEORY":"SGP4","MEAN_MOTION":"15.06385878","LAUNCH_DATE":"2020-06-13","BSTAR":"-0.00006437500000","INCLINATION":"53.0555","DECAY_DATE":null,"CLASSIFICATION_TYPE":"U","REF_FRAME":"TEME","GP_ID":"195441045","SEMIMAJOR_AXIS":"6925.392","NORAD_CAT_ID":"45782","PERIAPSIS":"546.143","TIME_SYSTEM":"UTC","ELEMENT_SET_NO":"999","MEAN_ANOMALY":"297.3506"},{"APOAPSIS":"548.386","EPHEMERIS_TYPE":"0","TLE_LINE2":"2 45783  53.0566  54.1207 0001649  66.6191 293.4972 15.06390065 91890","EPOCH":"2022-02-06T18:21:18.999072","OBJECT_TYPE":"PAYLOAD","ARG_OF_PERICENTER":"66.6191","PERIOD":"95.593","MEAN_MOTION_DDOT":"0.0000000000000","REV_AT_EPOCH":"9189","COUNTRY_CODE":"US","TLE_LINE1":"1 45783U 20038BF  22037.76480323 -.00001709  00000-0 -95853-4 0  9990","ECCENTRICITY":"0.00016490","FILE":"3293822","MEAN_MOTION_DOT":"-0.00001709","SITE":"AFETR","OBJECT_NAME":"STARLINK-1505","RCS_SIZE":"LARGE","RA_OF_ASC_NODE":"54.1207","NORAD_CAT_ID":"45783","SEMIMAJOR_AXIS":"6925.379","REF_FRAME":"TEME","GP_ID":"195441797","CLASSIFICATION_TYPE":"U","TIME_SYSTEM":"UTC","PERIAPSIS":"546.102","MEAN_ANOMALY":"293.4972","ELEMENT_SET_NO":"999","MEAN_ELEMENT_THEORY":"SGP4","OBJECT_ID":"2020-038BF","CENTER_NAME":"EARTH","DECAY_DATE":null,"INCLINATION":"53.0566","LAUNCH_DATE":"2020-06-13","BSTAR":"-0.00009585300000","MEAN_MOTION":"15.06390065"}];
